SWARM B                 
1 39451U 13067A   26200.27610933  .00001934  00000+0  67992-4 0  9993
2 39451  87.7464 332.5693 0002218  86.3353 273.8150 15.28732667688142
SWARM A                 
1 39452U 13067B   26200.28103658  .00005600  00000+0  94050-4 0  9995
2 39452  87.3299  44.3056 0003344  92.2781 267.8863 15.51505516711225
SWARM C                 
1 39453U 13067C   26200.28094504  .00005685  00000+0  95494-4 0  9991
2 39453  87.3300  42.8864 0003330  92.0371 268.1272 15.51505071711186
BRITE-CA1 (TORONTO)     
1 40020U 14033L   26200.31108209  .00000524  00000+0  86289-4 0  9998
2 40020  97.9776 328.6539 0078789 173.0970 187.1343 14.72727256646944
OCO 2                   
1 40059U 14035A   26200.29256390  .00000163  00000+0  46276-4 0  9995
2 40059  98.2020 141.0983 0001420  80.9959 279.1400 14.57133953640727
BRITE-PL2 (HEWELIUSZ)   
1 40119U 14049B   26200.23975139  .00000707  00000+0  70573-4 0  9991
2 40119  97.9121 312.4929 0013945   9.0483 351.0986 14.94692460646230
MMS 1                   
1 40482U 15011A   26200.33335648 -.00001274  00000+0  00000+0 0  9994
2 40482  72.4971 348.4139 8313170 168.1346 337.8460  0.28101694  1377
MMS 2                   
1 40483U 15011B   26200.33335648 -.00001274  00000+0  00000+0 0  9995
2 40483  72.5011 348.4129 8315999 168.1371 337.8334  0.28100850  1375
MMS 3                   
1 40484U 15011C   26200.33335648 -.00001273  00000+0  00000+0 0  9995
2 40484  72.5008 348.4247 8314364 168.1449 337.8074  0.28101189  1348
MMS 4                   
1 40485U 15011D   26200.33335648 -.00001274  00000+0  00000+0 0  9997
2 40485  72.4964 348.4082 8314318 168.1547 337.8032  0.28101216  1372
ASTROSAT                
1 40930U 15052A   26200.04582483  .00001086  00000+0  50548-4 0  9993
2 40930   5.9971 286.0405 0007532 132.5817 227.4947 14.82555431584569
DAMPE                   
1 41173U 15078A   26200.26323583  .00000651  00000+0  24429-4 0  9995
2 41173  97.4565 205.8904 0011155 330.5985  29.4627 15.30859344589451
PISAT                   
1 41784U 16059B   26200.22588394  .00000437  00000+0  82048-4 0  9995
2 41784  97.8193 199.3045 0030544 102.5223 257.9402 14.69033621524448
HXMT (HUIYAN)           
1 42758U 17034A   26200.29764956  .00002013  00000+0  10569-3 0  9998
2 42758  43.0153   4.2086 0031784 346.5246  13.4751 15.18708221502549
FLYING LAPTOP           
1 42831U 17042G   26200.31234836  .00001751  00000+0  14004-3 0  9997
2 42831  97.4831 354.6403 0019475  19.4544 340.7420 15.01328506491274
ZHANGHENG 1-01 (CSES-1) 
1 43194U 18015C   26200.31266819  .00003413  00000+0  15836-3 0  9998
2 43194  97.6901   6.6132 0016719 151.2617 208.9542 15.20639120469525
SALSAT                  
1 46495U 20068K   26200.25708758  .00003822  00000+0  13357-3 0  9992
2 46495  97.8864 205.2860 0009659 178.4698 181.6573 15.30204681320261
IXPE                    
1 49954U 21121A   26200.33335648  .00006494  00000+0  32820-3 0  9993
2 49954   0.2316  74.0270 0007284 208.9667  63.5642 15.10509568  5599
SMILE                   
1 69123U 26109A   26194.95939329  .00000936  00000+0  00000+0 0  9996
2 69123  70.0512 206.6048 8313707 286.9544   0.1879  0.47500629    65
