OBJECT_NAME,OBJECT_ID,EPOCH,MEAN_MOTION,ECCENTRICITY,INCLINATION,RA_OF_ASC_NODE,ARG_OF_PERICENTER,MEAN_ANOMALY,EPHEMERIS_TYPE,CLASSIFICATION_TYPE,NORAD_CAT_ID,ELEMENT_SET_NO,REV_AT_EPOCH,BSTAR,MEAN_MOTION_DOT,MEAN_MOTION_DDOT
SWARM B,2013-067A,2026-07-19T06:37:35.846112,15.28732667,.00022187,87.7464,332.5693,86.3353,273.8150,0,U,39451,999,68814,.67991995E-4,.1934E-4,0
SWARM A,2013-067B,2026-07-19T06:44:41.560512,15.51505516,.00033445,87.3299,44.3056,92.2781,267.8863,0,U,39452,999,71122,.94049989E-4,.56E-4,0
SWARM C,2013-067C,2026-07-19T06:44:33.651456,15.51505071,.00033306,87.3300,42.8864,92.0371,268.1272,0,U,39453,999,71118,.95493531E-4,.5685E-4,0
BRITE-CA1 (TORONTO),2014-033L,2026-07-19T07:27:57.492576,14.72727256,.00787895,97.9776,328.6539,173.0970,187.1343,0,U,40020,999,64694,.8628879E-4,.524E-5,0
OCO 2,2014-035A,2026-07-19T07:01:17.520960,14.57133953,.000142,98.2020,141.0983,80.9959,279.1400,0,U,40059,999,64072,.46275973E-4,.163E-5,0
BRITE-PL2 (HEWELIUSZ),2014-049B,2026-07-19T05:45:14.520096,14.94692460,.00139458,97.9121,312.4929,9.0483,351.0986,0,U,40119,999,64623,.70572811E-4,.707E-5,0
MMS 1,2015-011A,2026-07-19T08:00:01.999872,0.28101694,.83131701,72.4971,348.4139,168.1346,337.8460,0,U,40482,999,137,0,-.1274E-4,0
MMS 2,2015-011B,2026-07-19T08:00:01.999872,0.28100850,.83159998,72.5011,348.4129,168.1371,337.8334,0,U,40483,999,137,0,-.1274E-4,0
MMS 3,2015-011C,2026-07-19T08:00:01.999872,0.28101189,.83143642,72.5008,348.4247,168.1449,337.8074,0,U,40484,999,134,0,-.1273E-4,0
MMS 4,2015-011D,2026-07-19T08:00:01.999872,0.28101216,.83143183,72.4964,348.4082,168.1547,337.8032,0,U,40485,999,137,0,-.1274E-4,0
ASTROSAT,2015-052A,2026-07-19T01:05:59.265312,14.82555431,.00075326,5.9971,286.0405,132.5817,227.4947,0,U,40930,999,58456,.50548195E-4,.1086E-4,0
DAMPE,2015-078A,2026-07-19T06:19:03.575712,15.30859344,.00111552,97.4565,205.8904,330.5985,29.4627,0,U,41173,999,58945,.24429048E-4,.651E-5,0
PISAT,2016-059B,2026-07-19T05:25:16.372416,14.69033621,.00305449,97.8193,199.3045,102.5223,257.9402,0,U,41784,999,52444,.82048499E-4,.437E-5,0
HXMT (HUIYAN),2017-034A,2026-07-19T07:08:36.921984,15.18708221,.00317845,43.0153,4.2086,346.5246,13.4751,0,U,42758,999,50254,.10569246E-3,.2013E-4,0
FLYING LAPTOP,2017-042G,2026-07-19T07:29:46.898304,15.01328506,.00194751,97.4831,354.6403,19.4544,340.7420,0,U,42831,999,49127,.14003844E-3,.1751E-4,0
ZHANGHENG 1-01 (CSES-1),2018-015C,2026-07-19T07:30:14.531616,15.20639120,.00167199,97.6901,6.6132,151.2617,208.9542,0,U,43194,999,46952,.15835558E-3,.3413E-4,0
SALSAT,2020-068K,2026-07-19T06:10:12.366912,15.30204681,.0009659,97.8864,205.2860,178.4698,181.6573,0,U,46495,999,32026,.13357219E-3,.3822E-4,0
IXPE,2021-121A,2026-07-19T08:00:01.999872,15.10509568,.00072846,0.2316,74.0270,208.9667,63.5642,0,U,49954,999,559,.32820202E-3,.6494E-4,0
SMILE,2026-109A,2026-07-13T23:01:31.580256,0.47500629,.83137076,70.0512,206.6048,286.9544,0.1879,0,U,69123,999,6,0,.936E-5,0
